[
    {
        "Altitude(m)": 713905.2867006315,
        "Argument of Periapsis(deg)": 0.005695060593313534,
        "Eccentricity": 0.0,
        "Inclination(deg)": 45.0,
        "Latitude(deg)": -35.50405973384643,
        "Longitude(deg)": 149.82856693142017,
        "Mean Anomaly(deg)": 234.85750832374043,
        "RAAN(deg)": 24.9946240292709,
        "Satellite Name": "Constellation 1 124",
        "Satellite Number": 124,
        "Semi-Major Axis(m)": 7083131.272910544,
        "Time(s)": 95
    },
    {
        "Altitude(m)": 713917.6096940037,
        "Argument of Periapsis(deg)": 0.00575500859955894,
        "Eccentricity": 0.0,
        "Inclination(deg)": 45.0,
        "Latitude(deg)": -35.534328378480964,
        "Longitude(deg)": 149.88886457027704,
        "Mean Anomaly(deg)": 234.91820946399034,
        "RAAN(deg)": 24.99456744010533,
        "Satellite Name": "Constellation 1 124",
        "Satellite Number": 124,
        "Semi-Major Axis(m)": 7083131.272910544,
        "Time(s)": 96
    },
    {
        "Altitude(m)": 713929.9207612919,
        "Argument of Periapsis(deg)": 0.005814956605804345,
        "Eccentricity": 0.0,
        "Inclination(deg)": 45.0,
        "Latitude(deg)": -35.56456240550754,
        "Longitude(deg)": 149.94921060305188,
        "Mean Anomaly(deg)": 234.97891060424018,
        "RAAN(deg)": 24.99451085093976,
        "Satellite Name": "Constellation 1 124",
        "Satellite Number": 124,
        "Semi-Major Axis(m)": 7083131.272910544,
        "Time(s)": 97
    },
    {
        "Altitude(m)": 713942.2198582087,
        "Argument of Periapsis(deg)": 0.00587490461204975,
        "Eccentricity": 0.0,
        "Inclination(deg)": 45.0,
        "Latitude(deg)": -35.594761751476064,
        "Longitude(deg)": 150.0096048966031,
        "Mean Anomaly(deg)": 235.03961174449012,
        "RAAN(deg)": 24.994454261774187,
        "Satellite Name": "Constellation 1 124",
        "Satellite Number": 124,
        "Semi-Major Axis(m)": 7083131.272910544,
        "Time(s)": 98
    },
    {
        "Altitude(m)": 713954.5069405042,
        "Argument of Periapsis(deg)": 0.005934852618295156,
        "Eccentricity": 0.0,
        "Inclination(deg)": 45.0,
        "Latitude(deg)": -35.62492635287734,
        "Longitude(deg)": 150.07004748566354,
        "Mean Anomaly(deg)": 235.10031288474002,
        "RAAN(deg)": 24.99439767260862,
        "Satellite Name": "Constellation 1 124",
        "Satellite Number": 124,
        "Semi-Major Axis(m)": 7083131.272910544,
        "Time(s)": 99
    },
    {
        "Altitude(m)": 713966.781963956,
        "Argument of Periapsis(deg)": 0.005994800624540561,
        "Eccentricity": 0.0,
        "Inclination(deg)": 45.0,
        "Latitude(deg)": -35.6550561461433,
        "Longitude(deg)": 150.13053840474274,
        "Mean Anomaly(deg)": 235.1610140249899,
        "RAAN(deg)": 24.99434108344305,
        "Satellite Name": "Constellation 1 124",
        "Satellite Number": 124,
        "Semi-Major Axis(m)": 7083131.272910544,
        "Time(s)": 100
    },
    {
        "Altitude(m)": 713979.0448843996,
        "Argument of Periapsis(deg)": 0.006054748630785968,
        "Eccentricity": 0.0,
        "Inclination(deg)": 45.0,
        "Latitude(deg)": -35.68515106764685,
        "Longitude(deg)": 150.19107768812532,
        "Mean Anomaly(deg)": 235.2217151652398,
        "RAAN(deg)": 24.994284494277483,
        "Satellite Name": "Constellation 1 124",
        "Satellite Number": 124,
        "Semi-Major Axis(m)": 7083131.272910544,
        "Time(s)": 101
    },
    {
        "Altitude(m)": 713991.2956576906,
        "Argument of Periapsis(deg)": 0.006114696637031373,
        "Eccentricity": 0.0,
        "Inclination(deg)": 45.0,
        "Latitude(deg)": -35.71521105370244,
        "Longitude(deg)": 150.25166536986993,
        "Mean Anomaly(deg)": 235.28241630548973,
        "RAAN(deg)": 24.994227905111913,
        "Satellite Name": "Constellation 1 124",
        "Satellite Number": 124,
        "Semi-Major Axis(m)": 7083131.272910544,
        "Time(s)": 102
    },
    {
        "Altitude(m)": 714003.5342397299,
        "Argument of Periapsis(deg)": 0.006174644643276778,
        "Eccentricity": 0.0,
        "Inclination(deg)": 45.0,
        "Latitude(deg)": -35.74523604056588,
        "Longitude(deg)": 150.31230148380732,
        "Mean Anomaly(deg)": 235.34311744573964,
        "RAAN(deg)": 24.99417131594634,
        "Satellite Name": "Constellation 1 124",
        "Satellite Number": 124,
        "Semi-Major Axis(m)": 7083131.272910544,
        "Time(s)": 103
    },
    {
        "Altitude(m)": 714015.7605864649,
        "Argument of Periapsis(deg)": 0.006234592649522184,
        "Eccentricity": 0.0,
        "Inclination(deg)": 45.0,
        "Latitude(deg)": -35.775225964434696,
        "Longitude(deg)": 150.3729858954432,
        "Mean Anomaly(deg)": 235.4038185859895,
        "RAAN(deg)": 24.994114726780772,
        "Satellite Name": "Constellation 1 124",
        "Satellite Number": 124,
        "Semi-Major Axis(m)": 7083131.272910544,
        "Time(s)": 104
    },
    {
        "Altitude(m)": 714027.9746538721,
        "Argument of Periapsis(deg)": 0.00629454065576759,
        "Eccentricity": 0.0,
        "Inclination(deg)": 45.0,
        "Latitude(deg)": -35.80518076144916,
        "Longitude(deg)": 150.4337189743438,
        "Mean Anomaly(deg)": 235.46451972623942,
        "RAAN(deg)": 24.994058137615205,
        "Satellite Name": "Constellation 1 124",
        "Satellite Number": 124,
        "Semi-Major Axis(m)": 7083131.272910544,
        "Time(s)": 105
    },
    {
        "Altitude(m)": 714040.1763979674,
        "Argument of Periapsis(deg)": 0.006354488662012995,
        "Eccentricity": 0.0,
        "Inclination(deg)": 45.0,
        "Latitude(deg)": -35.83510036769105,
        "Longitude(deg)": 150.4945005855535,
        "Mean Anomaly(deg)": 235.52522086648935,
        "RAAN(deg)": 24.994001548449635,
        "Satellite Name": "Constellation 1 124",
        "Satellite Number": 124,
        "Semi-Major Axis(m)": 7083131.272910544,
        "Time(s)": 106
    },
    {
        "Altitude(m)": 714052.3657748128,
        "Argument of Periapsis(deg)": 0.006414436668258401,
        "Eccentricity": 0.0,
        "Inclination(deg)": 45.0,
        "Latitude(deg)": -35.86498471918478,
        "Longitude(deg)": 150.55533076198088,
        "Mean Anomaly(deg)": 235.58592200673928,
        "RAAN(deg)": 24.993944959284068,
        "Satellite Name": "Constellation 1 124",
        "Satellite Number": 124,
        "Semi-Major Axis(m)": 7083131.272910544,
        "Time(s)": 107
    },
    {
        "Altitude(m)": 714064.5427405087,
        "Argument of Periapsis(deg)": 0.0064743846745038075,
        "Eccentricity": 0.0,
        "Inclination(deg)": 45.0,
        "Latitude(deg)": -35.8948337518976,
        "Longitude(deg)": 150.61620953630086,
        "Mean Anomaly(deg)": 235.64662314698913,
        "RAAN(deg)": 24.993888370118494,
        "Satellite Name": "Constellation 1 124",
        "Satellite Number": 124,
        "Semi-Major Axis(m)": 7083131.272910544,
        "Time(s)": 108
    },
    {
        "Altitude(m)": 714076.7072511944,
        "Argument of Periapsis(deg)": 0.0065343326807492125,
        "Eccentricity": 0.0,
        "Inclination(deg)": 45.0,
        "Latitude(deg)": -35.92464740173961,
        "Longitude(deg)": 150.6771369409532,
        "Mean Anomaly(deg)": 235.70732428723898,
        "RAAN(deg)": 24.993831780952924,
        "Satellite Name": "Constellation 1 124",
        "Satellite Number": 124,
        "Semi-Major Axis(m)": 7083131.272910544,
        "Time(s)": 109
    },
    {
        "Altitude(m)": 714088.859263044,
        "Argument of Periapsis(deg)": 0.0065942806869946176,
        "Eccentricity": 0.0,
        "Inclination(deg)": 45.0,
        "Latitude(deg)": -35.9544256045642,
        "Longitude(deg)": 150.73811300814143,
        "Mean Anomaly(deg)": 235.76802542748896,
        "RAAN(deg)": 24.993775191787357,
        "Satellite Name": "Constellation 1 124",
        "Satellite Number": 124,
        "Semi-Major Axis(m)": 7083131.272910544,
        "Time(s)": 110
    },
    {
        "Altitude(m)": 714100.9987322799,
        "Argument of Periapsis(deg)": 0.006654228693240024,
        "Eccentricity": 0.0,
        "Inclination(deg)": 45.0,
        "Latitude(deg)": -35.98416829616777,
        "Longitude(deg)": 150.7991376017341,
        "Mean Anomaly(deg)": 235.8287265677388,
        "RAAN(deg)": 24.993718602621787,
        "Satellite Name": "Constellation 1 124",
        "Satellite Number": 124,
        "Semi-Major Axis(m)": 7083131.272910544,
        "Time(s)": 111
    },
    {
        "Altitude(m)": 714113.1256151599,
        "Argument of Periapsis(deg)": 0.006714176699485429,
        "Eccentricity": 0.0,
        "Inclination(deg)": 45.0,
        "Latitude(deg)": -36.01387541229118,
        "Longitude(deg)": 150.86021108965184,
        "Mean Anomaly(deg)": 235.8894277079887,
        "RAAN(deg)": 24.99366201345622,
        "Satellite Name": "Constellation 1 124",
        "Satellite Number": 124,
        "Semi-Major Axis(m)": 7083131.272910544,
        "Time(s)": 112
    },
    {
        "Altitude(m)": 714125.2398679851,
        "Argument of Periapsis(deg)": 0.006774124705730835,
        "Eccentricity": 0.0,
        "Inclination(deg)": 45.0,
        "Latitude(deg)": -36.04354688861847,
        "Longitude(deg)": 150.92133333528415,
        "Mean Anomaly(deg)": 235.9501288482386,
        "RAAN(deg)": 24.993605424290646,
        "Satellite Name": "Constellation 1 124",
        "Satellite Number": 124,
        "Semi-Major Axis(m)": 7083131.272910544,
        "Time(s)": 113
    }
]